ONEWEB-0525             
1 54143U 22138AG  24080.56751416  .00000089  00000+0  19109-3 0  9991
2 54143  87.9106 107.9207 0001811  82.3240 277.8098 13.19726493 69726
ONEWEB-0526             
1 54144U 22138AH  24080.52486518 -.00000015  00000+0 -70677-4 0  9995
2 54144  87.9102 107.9264 0001781  91.9051 268.2286 13.19726667 68824
ONEWEB-0529             
1 54145U 22138AJ  24080.52801777 -.00000009  00000+0 -55539-4 0  9997
2 54145  87.9110 107.9340 0001700  84.6826 275.4501 13.19726975 68843
ONEWEB-0531             
1 54146U 22138AK  24080.52884714 -.00000068  00000+0 -20010-3 0  9990
2 54146  87.9131  77.3451 0002059 122.7426 237.3906 13.20773364 71248
ONEWEB-0535             
1 54147U 22138AL  24080.56119344  .00000071  00000+0  14607-3 0  9992
2 54147  87.9104 107.9178 0002202 103.4560 256.6819 13.19726321 69737
ONEWEB-0536             
1 54148U 22138AM  24080.51622326  .00000118  00000+0  25786-3 0  9999
2 54148  87.9130  77.3979 0002593 111.5020 248.6390 13.20773953 71238
GSLV R/B                
1 54149U 22138AN  24080.89119185  .00004558  00000+0  46675-3 0  9997
2 54149  87.3807  46.4743 0021880 228.3644 131.5711 14.90118802 76639
ONEWEB-0527             
1 54642U 22166A   24080.43901157 -.00000004  00000+0 -40049-4 0  9998
2 54642  87.9261  46.9477 0001766  86.6167 273.5169 13.21827298 63372
